{"type":"FeatureCollection","features":[{"type":"Feature","id":1,"geometry":{"type":"Polygon","coordinates":[[[-86.246418344031326,22.37287947900478],[-86.943073228846401,22.396202810811133],[-87.813971313125535,21.920367264237882],[-87.819691004036542,21.559295793965759],[-87.769846157873872,21.552639065240726],[-87.70978756374501,21.536851303944559],[-87.706288215328811,21.533433335180348],[-87.714833137239452,21.52667877820312],[-87.725005662980948,21.523260809438852],[-87.737619594468697,21.52240631769746],[-87.749826626797358,21.524603583588544],[-87.759185350623397,21.530340886822501],[-87.774322069308027,21.536769924292628],[-87.819928124683145,21.544326895070185],[-87.820225958561082,21.525525287961727],[-87.811350063654459,21.521063544447088],[-87.778065558478716,21.510646877051784],[-87.745513475566383,21.506781317503851],[-87.676909959526995,21.506781317503851],[-87.644846158123642,21.500311591107106],[-87.628407356014634,21.499497789191651],[-87.611805792803068,21.506781317503851],[-87.654286261601669,21.508612372263201],[-87.674549934331992,21.513576565206392],[-87.690581834583952,21.523586329845273],[-87.685658331466811,21.52875397371696],[-87.618560350679616,21.520453192560865],[-87.562733528129797,21.501410223602988],[-87.539784308898675,21.499335028089149],[-87.510650193851347,21.50067780223884],[-87.501942511737468,21.499335028089149],[-87.498443163321269,21.495266018511984],[-87.49453691304808,21.488104559677765],[-87.487538215316363,21.481756903658209],[-87.474598761623497,21.480129298928034],[-87.481516079703283,21.475978907900355],[-87.487538215316363,21.473578191980039],[-87.492421027708247,21.474432684620751],[-87.495716926095213,21.480129298928034],[-87.501942511737468,21.480129298928034],[-87.492746549013987,21.468491929558979],[-87.474110481013838,21.467108466482614],[-87.429921027833132,21.472642320586658],[-87.408355272577751,21.470282294492335],[-87.35106360550094,21.452134507101846],[-87.28929602788935,21.454575914646796],[-87.272572395199859,21.448431708656472],[-87.25694739500625,21.440619208110036],[-87.238189256628857,21.443019924030295],[-87.166127081999207,21.472642320586658],[-87.155588345125977,21.481756903658209],[-87.142445442303256,21.501369532877675],[-87.135121223265799,21.510199286268119],[-87.129994270119425,21.519435940616233],[-87.131906704530763,21.528469143136476],[-87.136341926138925,21.536851303944559],[-87.138783331885236,21.544623114665058],[-87.136870897473898,21.55267975506672],[-87.134836391785996,21.558335679548009],[-87.138335741101514,21.563055730837334],[-87.153065558828416,21.568264065434334],[-87.17577063730505,21.569037177523796],[-87.199859178857992,21.562323309473186],[-87.2218318350711,21.550848700307313],[-87.238107876976926,21.537502346556096],[-87.256581183874516,21.528021552352811],[-87.28050696522422,21.527899481076247],[-87.304798956806394,21.533392645354354],[-87.324370897998506,21.540920315320363],[-87.331206834627665,21.534084376892508],[-87.33678137855776,21.548244533458501],[-87.337473110995234,21.554592190377321],[-87.353382941769325,21.546820380556142],[-87.37950598901017,21.527085679160791],[-87.399525520086627,21.520453192560865],[-87.397857225530515,21.51605866167796],[-87.397328254195543,21.515326239414492],[-87.396066860597102,21.515448308892417],[-87.392079230671925,21.513617255032329],[-87.402333136964671,21.509466864004594],[-87.410389778265596,21.512396552159203],[-87.414458787842761,21.521063544447088],[-87.413156705317647,21.534084376892508],[-87.382435676265402,21.558294988822752],[-87.372181769972656,21.569159247001721],[-87.365305141718864,21.573960678842298],[-87.357736782826237,21.575140691889487],[-87.333973761679715,21.574367580699345],[-87.302642381640567,21.569240627552972],[-87.293039517060038,21.56513092725055],[-87.272124803516817,21.560777085294319],[-87.24388587093614,21.568548895115441],[-87.134185350973155,21.619452216346758],[-87.111480272496522,21.623439846271935],[-87.043324348140118,21.602118230871724],[-87.026193813593579,21.592433986639207],[-86.997914192086284,21.565904039340012],[-86.944691535485958,21.4930687526209],[-86.940174934225809,21.482855536154148],[-86.93366451710375,21.474839585578479],[-86.929188605669594,21.466213283116588],[-86.924794074786689,21.446112372388143],[-86.91852779931844,21.439601955266085],[-86.90941321534757,21.435003973454684],[-86.898589647893914,21.43162669541573],[-86.894764778171918,21.443833725945751],[-86.885365363620622,21.445217189921436],[-86.864491339903395,21.43854401259614],[-86.838775193620279,21.437933661609236],[-86.827951627065886,21.433294989072522],[-86.812570766727447,21.382798570597629],[-86.810454882286933,21.370266017862491],[-86.812489387075516,21.354803777872121],[-86.821441209943828,21.329982814954974],[-86.82347571473241,21.318345445585919],[-86.822865363745507,21.269517319868442],[-86.815052864098334,21.204779364276305],[-86.790923631820135,21.158351955378464],[-86.741566535667062,21.164129950237054],[-86.744252082167804,21.154689845859764],[-86.747466600902897,21.148993231552424],[-86.75108801969634,21.144029039508609],[-86.77257239529979,21.099025783513127],[-86.77717037711119,21.091986395056153],[-86.789947068802121,21.064886786595991],[-86.788807745580982,21.058539130576492],[-86.783680793333929,21.049058335473831],[-86.782541470112733,21.044012761979445],[-86.783680793333929,21.035956122477103],[-86.786732550966406,21.03510162983639],[-86.791127081849311,21.036200262332272],[-86.79621334516969,21.03384023623795],[-86.80223548078277,21.029852606312772],[-86.817534959670638,21.024725653166399],[-86.82347571473241,21.020168361180993],[-86.827748176137391,21.012640692114303],[-86.829945442028475,21.004461981335396],[-86.830922004147112,20.982611395499532],[-86.833159959864247,20.971014715956414],[-86.850819464846381,20.917710679704157],[-86.875152148053132,20.865301825019287],[-86.875314908256371,20.855047919625861],[-86.943226691858285,20.762274481482166],[-87.036366340234395,20.663275458595592],[-87.056792773167899,20.630438544203514],[-87.067453579519054,20.619208074892811],[-87.122629361255974,20.586655991980479],[-87.138091601246344,20.571844794601645],[-87.180409308942444,20.547186590988417],[-87.234974738793142,20.492580471311726],[-87.353911913104241,20.326971747348296],[-87.365345831544857,20.293931382027722],[-87.378407355614911,20.291001695671753],[-87.38467363198248,20.284165757243954],[-87.38467363198248,20.275376695478144],[-87.379017706601815,20.266669012465002],[-87.410064256959856,20.246283270256754],[-87.430490688994041,20.221014716555999],[-87.443999803847817,20.191148179245147],[-87.465891079509674,20.111761786477302],[-87.471302864135851,20.069037176924212],[-87.467762824994338,19.984849351416472],[-87.460438605956881,19.962388414593704],[-87.437814908031555,19.921535549625958],[-87.433013476190922,19.899847723094013],[-87.434193489238112,19.889227606568852],[-87.4425349602202,19.853094794689071],[-87.447743293018505,19.848944403661335],[-87.454457161069115,19.847113348002665],[-87.46092688656654,19.841498114246633],[-87.474273241217077,19.797064520311437],[-87.479807095321178,19.784328518446443],[-87.48273678257641,19.82550690292129],[-87.481760219558453,19.836655992580063],[-87.478342251693505,19.841498114246633],[-87.46703040273087,19.842433986539277],[-87.460438605956881,19.849554755547558],[-87.452381964655899,19.851996161293869],[-87.447336392060834,19.861965236106812],[-87.445220506720943,19.874335028638711],[-87.443918424195886,19.913478908325033],[-87.461659308830008,19.928778387212844],[-87.466216600815414,19.938299872141442],[-87.467762824994338,19.95441315294471],[-87.471018032656048,19.962144272939895],[-87.478016731287084,19.964829820340015],[-87.485015429018802,19.962307033143134],[-87.488270636680511,19.95441315294471],[-87.486480272646418,19.946478582920292],[-87.47789466090984,19.938177802663517],[-87.474598761623497,19.93085358362606],[-87.470936653004117,19.898911851700632],[-87.47154700399102,19.884711005308702],[-87.474598761623497,19.875637111163826],[-87.469593878854369,19.880438543903722],[-87.464955207216974,19.88385651266799],[-87.454701300924285,19.889308986220783],[-87.49693762896834,19.829657293949026],[-87.505604621256225,19.82099030256046],[-87.510487433648109,19.817084052287214],[-87.517445441553832,19.809149481363534],[-87.525257942100325,19.802883204995965],[-87.532948370470876,19.803900457839916],[-87.542062955341066,19.812689520504989],[-87.549672004059687,19.817613023622187],[-87.556874152719956,19.81488678639613],[-87.564564581989828,19.800482489075648],[-87.579945442328267,19.799017645448032],[-87.600412564188446,19.771389065652897],[-87.618316209925126,19.736883856704651],[-87.628732877320374,19.708563544472042],[-87.646555141606484,19.677639065390622],[-87.65831458225216,19.644842840824481],[-87.667347785671723,19.633775132616336],[-87.680043097710779,19.63597239850742],[-87.669097459879822,19.642279364700983],[-87.658843553587076,19.655462958248961],[-87.654204881949681,19.67084381768808],[-87.66014563701151,19.68378327048157],[-87.670480923855507,19.681870835170969],[-87.724191861065492,19.682033596273527],[-87.734689908112728,19.68378327048157],[-87.741200325234786,19.671698309429473],[-87.744252081967943,19.651800847830884],[-87.744374153244564,19.630601304606557],[-87.742095506802173,19.614935614587012],[-87.731516080102949,19.60053131726653],[-87.702748176187356,19.58331940306806],[-87.700550911195535,19.573919989416027],[-87.693104620881513,19.570135809520025],[-87.683257615546495,19.567572333396527],[-87.671986457309117,19.566717841655134],[-87.66014563701151,19.567775783425702],[-87.666371222653765,19.55247630453789],[-87.669260220083061,19.523342190389826],[-87.673817512068467,19.505682684508315],[-87.654408331978914,19.507473049441728],[-87.641590949562612,19.518052476140895],[-87.630970832138132,19.532782293867797],[-87.618560350679616,19.546616929128049],[-87.607289191542918,19.552679755466386],[-87.578521287627268,19.561468817232196],[-87.564564581989828,19.567775783425702],[-87.536691860540884,19.560288804185006],[-87.515533007142551,19.548000393103734],[-87.509388801152227,19.546616929128049],[-87.502919074755482,19.55003489789226],[-87.500803188516272,19.556341864085823],[-87.499419726339283,19.562974351585126],[-87.495716926095213,19.567775783425702],[-87.486724412501587,19.567816473251696],[-87.480132615727598,19.562811591381887],[-87.474354620869008,19.560288804185006],[-87.467762824994338,19.567775783425702],[-87.46401933492433,19.56517161747621],[-87.461740688481939,19.562974351585126],[-87.459095831807133,19.561428127406202],[-87.454701300924285,19.560288804185006],[-87.467762824994338,19.554103908368745],[-87.467762824994338,19.546616929128049],[-87.441395636999005,19.553656317585023],[-87.426747199823353,19.573553778284293],[-87.425770636805396,19.592108466632453],[-87.440419074880367,19.595038152988423],[-87.434437629093281,19.584173895708773],[-87.434071417961547,19.577134507251742],[-87.443918424195886,19.573919989416027],[-87.474598761623497,19.573919989416027],[-87.502268033043265,19.577948309167198],[-87.515248175662748,19.581732489063143],[-87.529204882199508,19.58759186447304],[-87.508778450165323,19.588446356214433],[-87.447336392060834,19.580796617669819],[-87.447336392060834,19.58759186447304],[-87.449086067168253,19.593898830666546],[-87.441395636999005,19.618882554686195],[-87.440419074880367,19.63597239850742],[-87.421213344819989,19.599839584828999],[-87.412749803460599,19.57762278966004],[-87.416330533327425,19.567775783425702],[-87.423207160681898,19.558010158641935],[-87.433013476190922,19.492010809451358],[-87.443918424195886,19.47256094043513],[-87.458404101168298,19.455023504930864],[-87.474964972755231,19.442328191992544],[-87.491932746199268,19.43744538049998],[-87.498524542973257,19.433783270081904],[-87.526112433841718,19.406398830141939],[-87.534779426129603,19.402044989085027],[-87.570790167632083,19.396429755328995],[-87.552561001488982,19.401597398301362],[-87.545399542654707,19.411444403636381],[-87.542469856298794,19.423895574920891],[-87.536691860540884,19.43744538049998],[-87.571685350998109,19.427964585397376],[-87.617665168212909,19.405462957849295],[-87.655669725577354,19.37323639534344],[-87.667062955091239,19.334377346237602],[-87.66014563701151,19.334377346237602],[-87.652699347596752,19.354885157923775],[-87.646555141606484,19.354885157923775],[-87.654937304213206,19.339056708600253],[-87.669422981185619,19.323187567652155],[-87.67585201685705,19.31118398625199],[-87.66014563701151,19.307033596123631],[-87.681141731105981,19.265285549588498],[-87.687855598257215,19.242132880328199],[-87.676909959526995,19.231919663861447],[-87.658680792484574,19.227525132079222],[-87.649077928803308,19.220648505624069],[-87.6389867827138,19.220933335305233],[-87.618560350679616,19.238185940229016],[-87.592518683990022,19.268255927569044],[-87.581939257290855,19.286118882580411],[-87.577626106059881,19.303371486604874],[-87.567128059012703,19.31720612186507],[-87.542795376705214,19.323797919538379],[-87.495716926095213,19.327582098535061],[-87.516184048854711,19.286566473364132],[-87.50422115817986,19.296291408321906],[-87.493967251887113,19.309515692595198],[-87.480946417642997,19.319769597988625],[-87.46092688656654,19.320705471180588],[-87.46092688656654,19.313910223478103],[-87.480865037991066,19.304348049622831],[-87.496978318794334,19.2890485698357],[-87.523019985483927,19.25242747644694],[-87.533436652879175,19.228094794139508],[-87.544992641697036,19.174546617132705],[-87.557199674025696,19.156236070438354],[-87.548898891970225,19.133042710452798],[-87.562408006824,19.102118231371321],[-87.583851691702193,19.053208726001969],[-87.606190559047036,19.020412502335148],[-87.626047329920311,18.889349677145958],[-87.662017381596854,18.766831772967976],[-87.680043097710779,18.738511459836047],[-87.703521288276818,18.711737372681682],[-87.723378059150093,18.681219794557933],[-87.73704993420705,18.644964911401587],[-87.742095506802173,18.601304429555853],[-87.736968553655799,18.557033595823839],[-87.739247200098191,18.535956122077437],[-87.752349413094919,18.515366928940693],[-87.758046028301521,18.499457098166602],[-87.762562628662351,18.42938873939886],[-87.771229620950237,18.4063988303418],[-87.819447394781434,18.33860911711713],[-87.824615037753745,18.323919989216165],[-87.827748175937529,18.308986721460087],[-87.841420050994543,18.277655341420939],[-87.844553189178328,18.262152411604575],[-87.844553189178328,18.196682032849594],[-87.851958787867716,18.196682032849594],[-87.85383053245306,18.223374742150668],[-87.858794726295571,18.24506256688403],[-87.874989386750769,18.22565338769374],[-87.88719641818011,18.230047919475965],[-87.890980598076112,18.24355703343042],[-87.882394986339534,18.251288153425605],[-87.874256964487302,18.262681382040171],[-87.86839758997678,18.28803131719161],[-87.865345832344246,18.314154364432397],[-87.86563066292473,18.327582097835602],[-87.869007941863003,18.31736888226817],[-87.874175584835314,18.307440497281164],[-87.880034960245155,18.29865143461609],[-87.885487433798005,18.292222398045283],[-87.891428188859777,18.304103908168884],[-87.888254360850055,18.313625393097482],[-87.882150844685668,18.324530341102388],[-87.879302537981687,18.340643621905656],[-87.881703253902003,18.341986395156084],[-87.896351691976975,18.358058986133358],[-87.896839972586633,18.362738348496009],[-87.895822719742682,18.371323960232644],[-87.895904101193253,18.381008205364424],[-87.899769660741185,18.389064846665406],[-87.927601691464872,18.394924221175927],[-87.93016516758837,18.395900783294564],[-87.935292120734744,18.4000511743223],[-87.933827278006447,18.408514716580953],[-87.929595507326781,18.415920315270398],[-87.926503058968933,18.416327216228069],[-87.930490688894167,18.432562567408581],[-87.935170051256819,18.443101304281811],[-87.945057745518511,18.44879791948847],[-87.964670376536617,18.450506902971256],[-87.991322395112434,18.456935940441326],[-88.043568488694746,18.485052802644759],[-88.067372199667261,18.491441148490253],[-88.077788866163189,18.498602606425209],[-88.080230272808819,18.514227606618817],[-88.07872473845589,18.529527085506629],[-88.077259894828273,18.535834052599512],[-88.043812628549915,18.573431708106909],[-88.050526495701206,18.595770575451752],[-88.039906379176045,18.617010809401393],[-88.024403450259001,18.636297919113701],[-88.016468879335264,18.652899481426005],[-88.0142716143435,18.661851304294316],[-88.004383918283168,18.677883205445653],[-88.002186653291403,18.690130927600251],[-88.004383918283168,18.69122955919687],[-88.009348111226302,18.695990302110829],[-88.0142716143435,18.702053127549846],[-88.016468879335264,18.707180080696219],[-88.015248175562817,18.713568427441032],[-88.012684700338639,18.719549872328798],[-88.010121223315764,18.72357819207997],[-88.009022589920562,18.724269924517444],[-88.003773567296264,18.765448308992291],[-88.004546678486406,18.78685130404449],[-88.01276607999057,18.803656317285288],[-88.023426887241044,18.818101304431707],[-88.030262824769522,18.835150458426938],[-88.036284959483282,18.87498607055079],[-88.059396938917587,18.856878972986237],[-88.084136523082066,18.831284897979685],[-88.103911912504714,18.802720444992588],[-88.112049933457627,18.775783595836344],[-88.114125128971466,18.761542059618421],[-88.119536912698322,18.744533596348447],[-88.127308722519501,18.730210679579272],[-88.136219855561819,18.724269924517444],[-88.14293372271311,18.731634833380895],[-88.140288866038304,18.749212958711098],[-88.134673632282272,18.769517320368095],[-88.137766079740743,18.762193101330638],[-88.149159309254685,18.74998606990124],[-88.166859504062813,18.745428777915834],[-88.19082597613783,18.744696356551685],[-88.198801235988185,18.739935614537046],[-88.241810676121759,18.703843492483259],[-88.247792121009525,18.696275132691255],[-88.252512174097546,18.687323308923624],[-88.255482551178773,18.676459052543294],[-88.235707160856748,18.684312242016404],[-88.215931769635404,18.699530341252284],[-88.198801235988185,18.718695380587405],[-88.187123175893817,18.738511459836047],[-88.180897590251561,18.721177476159653],[-88.185617641540887,18.708563544671904],[-88.192941860578344,18.695379950224549],[-88.194650844960506,18.676459052543294],[-88.189320441784901,18.684393622567654],[-88.180897590251561,18.693833726045682],[-88.17076575433606,18.701402084938309],[-88.160471158217319,18.703762111032631],[-88.150746223259546,18.698553778234327],[-88.156971808901801,18.691107489718945],[-88.168202278212505,18.684881903177313],[-88.173491990662797,18.683294989172452],[-88.197621222941052,18.635199286617819],[-88.221058722781777,18.605780340990009],[-88.2486059238243,18.556626694866111],[-88.253000454707205,18.540757553918013],[-88.274769660891081,18.509833074836592],[-88.283314581902403,18.491441148490253],[-88.295521614231063,18.48940664370167],[-88.299712694185473,18.487453518565076],[-88.303822394487895,18.484035548901488],[-88.303822394487895,18.481350364827506],[-88.303822394487895,18.481350002400745],[-88.303822394487895,18.477769273433296],[-88.286610481188745,18.462795314951848],[-88.306263801133468,18.438299872441235],[-88.383697068764661,18.384955145463664],[-88.390980597976181,18.370591538868496],[-88.379546678636245,18.354925847949573],[-88.365386522969629,18.354071356208181],[-88.317494269544852,18.374823309548162],[-88.323109504200204,18.360256252024442],[-88.332427538200307,18.344794012034072],[-88.355336066706059,18.317084052587006],[-88.360829230984166,18.308254299196619],[-88.357980924280184,18.303697007211156],[-88.350249804284999,18.304185289619454],[-88.341420050894612,18.310248114159208],[-88.324574347827877,18.32831452009907],[-88.291411913029322,18.351141668952891],[-88.275746223009719,18.358221747235916],[-88.259144660697473,18.361151434491148],[-88.23680579245331,18.358140367583928],[-88.207753058856554,18.344631251830833],[-88.194650844960506,18.340643621905656],[-88.173410611010866,18.343736070263503],[-88.143137173641605,18.36375560133996],[-88.108509895215434,18.373928127081456],[-88.096750454569758,18.375433661434386],[-88.091542120872134,18.371730861190315],[-88.093495246008786,18.357611395349693],[-88.09902910101215,18.348374741900841],[-88.118885870986105,18.333807684377177],[-88.141713019839983,18.324448960551138],[-88.146148240548825,18.320217189871471],[-88.146473761854566,18.30927155204057],[-88.139271614093673,18.306952216671505],[-88.130523241254537,18.310451565087703],[-88.123036262013841,18.322333075211304],[-88.114857551234991,18.327826239489411],[-88.104644334768182,18.332098699995072],[-88.094960089636402,18.333807684377177],[-88.091664192148698,18.328355209925064],[-88.083566861021779,18.210109768051382],[-88.091542120872134,18.118394273477008],[-88.094797330332483,18.1027692732834],[-88.108794725795917,18.07884349193364],[-88.112049933457627,18.063177801914094],[-88.149647589864344,17.971340236063099],[-88.166737433685569,17.960150458377029],[-88.166859504062813,17.959947007448477],[-88.208322720017463,17.881984768482312],[-88.202259894578447,17.856146551821951],[-88.214344855630543,17.773098049535406],[-88.238758917589962,17.690375067655282],[-88.246693488513642,17.673651434066471],[-88.272694464477922,17.643988348583491],[-88.283192511525158,17.625637111163826],[-88.287709113684627,17.604234117010947],[-88.283314581902403,17.58026764493593],[-88.271229620850306,17.568101304231845],[-88.235585089580184,17.550726629830137],[-88.228138801064802,17.535589911145507],[-88.218576627209529,17.527289129989413],[-88.176665818672575,17.520249742431702],[-88.167307094846535,17.512030340927538],[-88.179351366072638,17.492621160837928],[-88.205148892007742,17.492865302491793],[-88.230783657739551,17.496527411111174],[-88.242339647456731,17.487494208590931],[-88.244943814305543,17.471991277875247],[-88.260229690947426,17.423064435375466],[-88.286284959882948,17.33966705908756],[-88.295969205014785,17.238104559178112],[-88.29698645695936,17.217189846534268],[-88.300526496100872,17.177923895571382],[-88.293446417817904,17.156805731099666],[-88.289540167544658,17.13776276214179],[-88.289377408240739,17.135768947179201],[-88.28856360632534,17.126939195587454],[-88.283314581902403,17.103949286530394],[-88.279408331629156,17.09145742452057],[-88.269927538325192,17.086330471374197],[-88.2486059238243,17.079413153294411],[-88.23648027294621,17.06419505405853],[-88.228179490890739,17.044867255419547],[-88.223459438702093,17.023138739061608],[-88.220855272752601,16.991441147890725],[-88.215077277894011,16.967108466482614],[-88.217437303988333,16.955471096214183],[-88.223703579456583,16.952948309017302],[-88.232492642121713,16.953070380293866],[-88.242339647456731,16.949652411529598],[-88.253285286186951,16.939927476571825],[-88.266957161243965,16.924750067161938],[-88.278472460235832,16.907416083485487],[-88.283314581902403,16.891343492508213],[-88.278879361193503,16.872951565262554],[-88.259348110726705,16.843410549257499],[-88.255482551178773,16.826157945233035],[-88.253732876970673,16.826076565581104],[-88.250233527655155,16.823431708006979],[-88.24767005063228,16.818915105847509],[-88.2486059238243,16.813137110988919],[-88.252308723168994,16.812160548870281],[-88.26549231671703,16.813869533252387],[-88.269683397570702,16.813137110988919],[-88.282378709609702,16.803412176930465],[-88.287505662756075,16.797349351491448],[-88.289540167544658,16.788275458245835],[-88.291737434335062,16.783392644954631],[-88.296701627278253,16.778509833462067],[-88.301625128596754,16.771714584860263],[-88.303822394487895,16.761297919263598],[-88.302805141643944,16.749335028588746],[-88.298085089455299,16.733547268191899],[-88.29698645695936,16.723781643408188],[-88.306223111307531,16.652899480926351],[-88.312408007123793,16.642035223646701],[-88.321156379063609,16.633449611010803],[-88.331166144601866,16.620672919319816],[-88.342600063941745,16.579820054352069],[-88.348052537494596,16.567328192342245],[-88.351470507158126,16.549709377186048],[-88.344838019658823,16.524562892963218],[-88.348988410686559,16.515326239514366],[-88.356109178795521,16.506496486123979],[-88.362863735772748,16.505845445311081],[-88.365874803579288,16.521429755678753],[-88.33454342354014,16.635077216640298],[-88.317697719574085,16.652248440113453],[-88.311268683902597,16.662298895477704],[-88.337635870998611,16.649237372306914],[-88.364654100706161,16.583685613900002],[-88.386382616164781,16.55927155194064],[-88.379790818491415,16.558254299096689],[-88.365874803579288,16.551825262525881],[-88.372629360556516,16.548529364138915],[-88.37783769425414,16.547105210337236],[-88.384022590070458,16.548000393703262],[-88.393177863867265,16.551825262525881],[-88.391102667454106,16.543036199860808],[-88.388539192229928,16.538885808833072],[-88.383290167806933,16.53778717723651],[-88.372792120759755,16.538153387468924],[-88.372792120759755,16.531968492551925],[-88.383412239083555,16.525091864298133],[-88.390939908150187,16.51504140803462],[-88.392689581458967,16.50299713770778],[-88.390044725683481,16.497626044706237],[-88.386382616164781,16.490383205320711],[-88.405181443468791,16.476792709915685],[-88.42564856712761,16.437241929271693],[-88.444447395330997,16.428900458289547],[-88.446400519568272,16.42340729401144],[-88.448231575226998,16.399644272864975],[-88.44782467426927,16.394761460473092],[-88.453521287677233,16.391424872260075],[-88.458811001926165,16.391343492608144],[-88.462147590139125,16.393011786264992],[-88.462147590139125,16.394761460473092],[-88.468495246158625,16.390692449996607],[-88.470570441672521,16.388617255382087],[-88.471791144545648,16.386053778359212],[-88.475738084644831,16.381170965967328],[-88.48859615778639,16.351263738830539],[-88.49254309788563,16.346380927337975],[-88.500355597532746,16.342108465932995],[-88.526682094802823,16.308823959857932],[-88.529652472783368,16.30353424740764],[-88.533802863811104,16.290350652960342],[-88.536610480689092,16.285549221119709],[-88.537261523300629,16.282660223690414],[-88.535959438976874,16.274115302679149],[-88.536610480689092,16.271307684002466],[-88.539377407741142,16.270656643189568],[-88.547515428694055,16.271918035888689],[-88.550282355746106,16.271307684002466],[-88.554676886628954,16.268866278256212],[-88.566761847681107,16.266262111407343],[-88.571359829492508,16.26382070566109],[-88.573475714832341,16.259914455387843],[-88.578195767020986,16.243963933888494],[-88.578195767020986,16.285549221119709],[-88.585031704549465,16.285549221119709],[-88.591908331903937,16.26382070566109],[-88.605946418092685,16.260646877651311],[-88.619740363526944,16.268988348633457],[-88.625965950068519,16.281805731049701],[-88.629872200341708,16.287502346256304],[-88.638295050975785,16.288153387069201],[-88.646636522857193,16.286607164688974],[-88.650217251824699,16.285549221119709],[-88.651478644523763,16.281968492152259],[-88.651031053740098,16.264390366821999],[-88.653920051169393,16.257635808945452],[-88.661122199829606,16.255357164301756],[-88.694894985615065,16.250799872316293],[-88.700672980473655,16.247056382246285],[-88.7053930326623,16.24233633005764],[-88.712554490597199,16.238226630654538],[-88.725900845247793,16.236517645373112],[-88.740061001813729,16.230169989353556],[-88.744211391942144,16.21450429933401],[-88.742054816776317,16.175685940054166],[-88.745716926295074,16.154852606162876],[-88.755197719599039,16.139715887478246],[-88.769276495613724,16.130357164551526],[-88.78673255056674,16.127264716193736],[-88.791818813887119,16.124660549344924],[-88.797718879122954,16.118353583151418],[-88.802642382240094,16.110581773330239],[-88.807036913123,16.093207098029211],[-88.81314042928733,16.088120835608152],[-88.821766730849902,16.084865627047122],[-88.831410286155744,16.07949453314626],[-88.842518684189884,16.070298570422722],[-88.847482877133018,16.065171617276349],[-88.851918097841917,16.058986721460087],[-88.854318813762234,16.047919012352565],[-88.853505011846778,16.03685130414442],[-88.856271938898828,16.028265692407842],[-88.882394986139673,16.020900783544391],[-88.899647590164136,16.010809637454827],[-88.916371222853627,15.997503973529604],[-88.927642381990324,15.983872789197903],[-88.931141731305843,15.959051825381493],[-88.910267706689297,15.917385158498291],[-88.91397050693331,15.893947658657567],[-88.90001380129587,15.887844143392556],[-88.866200324785098,15.860337632176027],[-88.83161373618492,15.868638414231498],[-88.787342902452963,15.859076239476906],[-88.753285286087021,15.839789130663917],[-88.749501106191076,15.818793036569446],[-88.726796027714443,15.815171616876682],[-88.625965950068519,15.753892319874694],[-88.638295050975785,15.708807684227281],[-88.636219855461945,15.702093817076047],[-88.609242316479708,15.702093817076047],[-88.598378059200058,15.706122136827219],[-88.59520423119028,15.714667059637122],[-88.596343553512156,15.722154038877818],[-88.598703579606479,15.723211981547763],[-88.598988411086282,15.727362372575499],[-88.602365689125236,15.730902411716954],[-88.605580206960951,15.735541083354349],[-88.605458136583707,15.743068752421038],[-88.600453253814578,15.744574285874648],[-88.591175910539789,15.743557033030697],[-88.582183397845483,15.745021877557633],[-88.578195767020986,15.753892319874694],[-88.574330206573734,15.769964910852025],[-88.565500454981986,15.780951239408239],[-88.556060350604639,15.789496161318823],[-88.550282355746106,15.798285223084633],[-88.549061652872922,15.813666083423072],[-88.556711392316856,15.837347723118967],[-88.557687955334814,15.852932033486582],[-88.550282355746106,15.852932033486582],[-88.55064856687784,15.84247467716466],[-88.550282355746106,15.839260158429624],[-88.544056770103793,15.839260158429624],[-88.532134569254936,15.846828518221571],[-88.503041144932865,15.841376044668777],[-88.488840298540936,15.84674713767032],[-88.511952277975183,15.867580471561553],[-88.524810351116798,15.87702057503958],[-88.543283658014388,15.885158595992436],[-88.551014778009574,15.895168361530693],[-88.557687955334814,15.906561591044635],[-88.564523891964029,15.914984442578032],[-88.60757402282286,15.938421942418756],[-88.619862433904188,15.953273830522903],[-88.605458136583707,15.96963125208066],[-88.590199347521832,15.961004950518088],[-88.56183834456391,15.949042058943917],[-88.550282355746106,15.942328192692003],[-88.521229621249972,15.912746485961634],[-88.500233528054821,15.901068427665848],[-88.447906053921201,15.858710028345172],[-88.344838019658823,15.81195709814159],[-88.311024543148108,15.782416083035855],[-88.300404425723627,15.777818101224454],[-88.256337042920165,15.740383205020919],[-88.221547004290755,15.725897528048506],[-88.220936653303852,15.725653387294017],[-88.220922134648731,15.725647338453939],[-88.215077277894011,15.723211981547763],[-88.169748501492109,15.691961981160546],[-88.145253058981439,15.684515692645164],[-88.118885870986105,15.695868231433792],[-88.06090247327046,15.755764065359358],[-88.036284959483282,15.770941472970662],[-88.041615363558151,15.786688544440835],[-88.031605598019894,15.789862372450557],[-87.992258266505758,15.784613348027619],[-87.933908657658378,15.818793036569446],[-87.926665819172172,15.832342841249158],[-87.924549933832338,15.842189846584176],[-87.93016516758837,15.84674713767032],[-87.941314257247143,15.849839585128791],[-87.950428840318693,15.856919664311135],[-87.954579231346429,15.863999742594103],[-87.950998501479603,15.867173570603825],[-87.908762174334868,15.868068752171212],[-87.891957161094069,15.872951565462415],[-87.875559048810999,15.884263414425106],[-87.846058722631881,15.893866278106316],[-87.760080533090104,15.899562893312918],[-87.742095506802173,15.904486395530796],[-87.736317511943582,15.918605861371475],[-87.728342252093228,15.921006578191054],[-87.722157356276909,15.922919012602392],[-87.704335090192217,15.920721747610628],[-87.687489387125481,15.914984442578032],[-87.643055793190285,15.889227606468921],[-87.626047329920311,15.887681382289998],[-87.626047329920311,15.893947658657567],[-87.636301236213058,15.903509833412159],[-87.62596595026838,15.914943751852718],[-87.591297981116895,15.935492255163467],[-87.610422329726703,15.910101630186148],[-87.617298957081175,15.894598700369784],[-87.60863196479329,15.887681382289998],[-87.603138800515183,15.880764065109588],[-87.509632941906716,15.798651434216367],[-87.47940019346413,15.786037501829298],[-87.447336392060834,15.792141017993629],[-87.441761848130739,15.797756252648981],[-87.431548631663986,15.813950914003556],[-87.426828579475341,15.818793036569446],[-87.417144335242824,15.819525457933594],[-87.391184049104538,15.818426825437712],[-87.38585364502967,15.82249583501482],[-87.379953579793835,15.839504299184114],[-87.364979621312443,15.848334052574501],[-87.345082160613174,15.850327867537089],[-87.241769985596306,15.827378648306023],[-87.151722785578045,15.796861070182274],[-87.05899003815972,15.787014064847256],[-86.952504036032394,15.763332424252042],[-86.916859503862952,15.760402736097433],[-86.878732877020639,15.764146226167441],[-86.8173721994674,15.781887111700883],[-86.799631313933958,15.784613348027619],[-86.796864386881907,15.787583726008222],[-86.78018144401841,15.800197658395291],[-86.776356575195734,15.801988023328647],[-86.770659959989132,15.806545315314111],[-86.758452928559791,15.802313544634444],[-86.746449348058945,15.795599677483153],[-86.741566535667062,15.792141017993629],[-86.69908606686846,15.78864166957743],[-86.503814256522674,15.805080471686495],[-86.470570442072187,15.804185289219788],[-86.43993079267193,15.792141017993629],[-86.437855598057354,15.790838934569251],[-86.414662238971118,15.776434637248769],[-86.39903723877751,15.772406317497598],[-86.374745246296015,15.770941472970662],[-86.354969855974048,15.773993231502459],[-86.338286913110494,15.781398830191904],[-86.243234830323104,15.838609117616727],[-86.218495246158625,15.865057684364672],[-86.207142706470677,15.87400950723304],[-86.172596808595813,15.887518622086816],[-86.137806769966403,15.895656643039672],[-85.994862433754292,15.900702216534114],[-85.98228919209248,15.904201564950313],[-85.972157356177036,15.909165756994128],[-85.933257616345884,15.936672268210657],[-85.912180141700162,15.959295966135983],[-85.903187629005856,15.983465887340856],[-85.919178840331199,16.003729559171859],[-85.982492642121713,16.012518621836989],[-86.012766079490916,16.019964911251691],[-86.007923956925026,16.03107330928583],[-85.981841601308815,16.033148505699046],[-85.904551557908007,16.018383359904192],[-85.851004880071116,16.008733664926751],[-85.813465950293335,16.004543361087315],[-85.766331745313778,15.991582225639263],[-85.719349738899268,15.979722398170168],[-85.703195766471424,15.976467190508458],[-85.692046678611291,15.971502997565324],[-85.689442511762479,15.960028387500131],[-85.689605272865037,15.946437892994425],[-85.687001106016169,15.935492255163467],[-85.679554816601467,15.935492255163467],[-85.680083787936439,15.942206122314758],[-85.678049283147857,15.94537995032448],[-85.675038215341317,15.947088934706642],[-85.672718879072988,15.949164130220481],[-85.656220702823134,15.948768477083604],[-85.647334405458423,15.935942688704188],[-85.629563115645226,15.922042589993566],[-85.608463943056506,15.907071985084087],[-85.564054792694492,15.888874600982092],[-85.488577668324695,15.869566580233538],[-85.436394406776401,15.873762959892758],[-85.361990542329636,15.881110034300718],[-85.254250156819239,15.88408499792439],[-85.196354781148216,15.907447770398335],[-85.123782968808939,15.958574593842457],[-85.075780235469438,15.986247321356871],[-84.999948697274533,15.987941799674388],[-84.950774183281908,15.972006974941962],[-84.854464300586983,15.929750654069494],[-84.733589441599406,15.8950293506241],[-84.676551751162322,15.876203025649147],[-84.662276815922269,15.865637092377938],[-84.668480615487965,15.853211763112427],[-84.680854079052494,15.834916739615892],[-84.680939234957691,15.819181621934376],[-84.681079925797917,15.79426675900379],[-84.660053913956915,15.774494091828899],[-84.640297128809436,15.771775004213112],[-84.61571324606939,15.77951835588749],[-84.61218850619457,15.799820681479332],[-84.609409105545751,15.808983062618267],[-84.599870326654241,15.808277578647392],[-84.593129225333428,15.795787892097565],[-84.57548515271759,15.783895482190815],[-84.550255366991564,15.787693059287278],[-84.526432807128288,15.784936377312022],[-84.47743654595979,15.778755997891039],[-84.46851640530781,15.789188903445165],[-84.452811171198562,15.795647751642491],[-84.473867338207071,15.804293072966971],[-84.499033204618684,15.809683259474866],[-84.577974540892285,15.822580436937642],[-84.607887389691257,15.835195009642007],[-84.633054966613372,15.847125321476483],[-84.641829710272873,15.862907078898616],[-84.601645592869772,15.854824789832207],[-84.464167581568574,15.829792031177362],[-84.374315457991941,15.820715618031386],[-84.315041911754804,15.817703801988898],[-84.294638382755124,15.81101014620134],[-84.258513045140887,15.781934087787988],[-83.662959912370013,17.139270856864584],[-83.052970238885393,18.493192192365825],[-83.680178262117067,19.269115750491551],[-84.31276652175751,20.045341883720994],[-84.951090950586888,20.82157759023363],[-85.595516727315101,21.597524654838992],[-86.246418344031326,22.37287947900478]],[[-86.720041470237618,21.212713934300666],[-86.739572719805153,21.242824611466688],[-86.749867316823156,21.273138739561205],[-86.741566535667062,21.287665106359611],[-86.738514778034528,21.266750393715768],[-86.727528449478314,21.242905992017995],[-86.70059160122139,21.198919988866464],[-86.720041470237618,21.212713934300666]],[[-86.75568600150774,20.577541408009608],[-86.749012825081763,20.592230535910574],[-86.74689693884261,20.595892645429274],[-86.742176886653965,20.595892645429274],[-86.73745683446532,20.59227122663583],[-86.735340950024806,20.585353908556101],[-86.737212693710831,20.582180080546323],[-86.749012825081763,20.56769440357391],[-86.784331835046089,20.509833075336189],[-86.797108527636397,20.47748444245309],[-86.813547329745461,20.461127019996013],[-86.843983528217223,20.437323309023554],[-86.855702278137585,20.420843817088553],[-86.880767381809164,20.375921942543641],[-86.885568813649797,20.358832097823097],[-86.889800585228784,20.353664454850787],[-86.899240688706755,20.348456122052426],[-86.908558722706857,20.341538803972696],[-86.912912563763769,20.331488348608445],[-86.916900193688946,20.324611721253973],[-86.926503059168795,20.31370677324901],[-86.979156053708891,20.267808335686198],[-86.995269334512159,20.260809637055161],[-87.002268033143196,20.270086981229269],[-87.005238411123742,20.290187892857034],[-87.018869594556122,20.332464911626403],[-87.022775844829312,20.355414129958206],[-87.019683398270161,20.397447007073765],[-87.007883266899228,20.436224677426992],[-86.968129036226003,20.50625234636874],[-86.936756964562221,20.547186590988417],[-86.929514126975334,20.550034898591719],[-86.91368567585323,20.563421942168929],[-86.905425584523073,20.56769440357391],[-86.896880662612432,20.567816473051835],[-86.890533006592932,20.565334377479587],[-86.885731574752356,20.562323309673047],[-86.882191535610843,20.560858466045431],[-86.871245897779943,20.558579820502359],[-86.846343554311545,20.548976955022511],[-86.837147589789424,20.547186590988417],[-86.8237198554869,20.549994207866462],[-86.801747200173111,20.562567450427537],[-86.789214648337293,20.559881903027474],[-86.771311001701349,20.566107489569049],[-86.75568600150774,20.577541408009608]],[[-87.258615688663042,18.656968491902433],[-87.269154425536271,18.738511459836047],[-87.255482550479257,18.724269924517444],[-87.24815833234112,18.676214910889485],[-87.249867316723225,18.650864976637422],[-87.262928839894016,18.628648179669824],[-87.258615688663042,18.656968491902433]],[[-87.375640428562917,18.410264389889733],[-87.358509894915699,18.42938873939886],[-87.348744270131931,18.442572332946838],[-87.343617316985558,18.452337958629926],[-87.337473110995234,18.477769273433296],[-87.331206834627665,18.532416082935924],[-87.328155076995188,18.541245835426992],[-87.324330207273192,18.549790757337632],[-87.318470831863351,18.558417058900204],[-87.310129360881263,18.567206122464654],[-87.328155076995188,18.532700914415727],[-87.322092251556114,18.489243882599169],[-87.334502733014688,18.454372463418508],[-87.373199022816607,18.402492580068554],[-87.379424607559542,18.402492580068554],[-87.375640428562917,18.410264389889733]],[[-87.880970831638535,18.208482164220527],[-87.87840735551498,18.208238023466038],[-87.87474524599628,18.206488348358619],[-87.874134895009377,18.202460028607504],[-87.87474524599628,18.197333075461131],[-87.878285286037055,18.187323309023554],[-87.887806770066334,18.175604559103192],[-87.89354407509893,18.180365302017151],[-87.89077714804688,18.197455144939056],[-87.886830207048376,18.203436591625461],[-87.883697068864592,18.201076565531139],[-87.883168097529619,18.203111070319665],[-87.884836392085788,18.207464911376633],[-87.88442949112806,18.209173894859418],[-87.880970831638535,18.208482164220527]],[[-87.857289191942641,18.169663804041363],[-87.847320116230321,18.155991928984406],[-87.84898841078649,18.133775132016751],[-87.862212694160462,18.122137762647696],[-87.869618292849907,18.110825914584325],[-87.890044725783412,18.05703359592377],[-87.899769660741185,18.039007880709164],[-87.906646288095658,18.043524481069994],[-87.913441535798199,18.046454169224603],[-87.915882941544453,18.035956122177367],[-87.919667120541135,18.028509833661928],[-87.925445116299045,18.023138738861746],[-87.933908657658378,18.019110419110575],[-87.933908657658378,18.012355861234084],[-87.926503058968933,17.997992255538236],[-87.917103645316956,18.011175848186895],[-87.914865688700559,18.01715729397398],[-87.913441535798199,18.02594635663911],[-87.907215950155944,18.02594635663911],[-87.915109829455048,17.982733466476361],[-87.934559700269915,17.942938544178503],[-87.965809699757813,17.913763739305182],[-88.009022589920562,17.902492580168484],[-88.009022589920562,17.909247137145712],[-87.998646614149891,17.908921617638612],[-87.995350714863548,17.909247137145712],[-87.958892381678027,17.934271551890674],[-87.945912239058543,17.951808986495564],[-87.940744595186857,17.977525131879361],[-87.956532355583704,17.976752020689275],[-87.952300584904037,18.007757880321947],[-87.933908657658378,18.070298570023056],[-87.931752081593231,18.074693100905904],[-87.927113410855213,18.07827382987341],[-87.922352667941254,18.082953192236062],[-87.920277473326678,18.090806382608548],[-87.919667120541135,18.100572007392259],[-87.904855924061621,18.153225001932356],[-87.895008917827283,18.162095445148736],[-87.879302537981687,18.155707098403923],[-87.857289191942641,18.169663804041363]],[[-87.96251380047147,18.079982815154835],[-87.970611131598389,18.073146877626357],[-87.981434699951421,18.071275132141693],[-87.984364387206654,18.077582098335199],[-87.977162238546441,18.087469794395531],[-87.972075976125382,18.090725002057241],[-87.969064908318842,18.090887762260479],[-87.963286912560932,18.093207098528808],[-87.960316535479706,18.09039948165082],[-87.96251380047147,18.079982815154835]],[[-87.954009569286143,18.088283596310987],[-87.955311652710577,18.09341054945736],[-87.956898566715438,18.097357489556543],[-87.955230273058589,18.100816148146748],[-87.950103319012953,18.103583075198799],[-87.944813605663342,18.107896226429773],[-87.943023240729929,18.113470770359811],[-87.941151496144585,18.117173570603825],[-87.93952389231373,18.118638414231498],[-87.937123175494094,18.114650783407001],[-87.936390754129945,18.103908596504596],[-87.942250128640467,18.093491929109291],[-87.950510219970624,18.087591863873456],[-87.954009569286143,18.088283596310987]],[[-88.167388476297106,17.673773505343036],[-88.166005012321421,17.67682526207625],[-88.160471158217319,17.682766018037341],[-88.139515753948842,17.69204336131213],[-88.082753059106381,17.72923411766044],[-88.071115688837949,17.734279690255562],[-88.08031165246075,17.701808986095898],[-88.103667772649544,17.681830144845378],[-88.134877082311448,17.671820380206441],[-88.167307094846535,17.669094142980384],[-88.167388476297106,17.673773505343036]],[[-88.055653449746899,17.562648830679052],[-88.064442511512652,17.58637116110026],[-88.077259894828273,17.64179108359167],[-88.063547329945266,17.630560614280967],[-88.053618944058996,17.606268622698849],[-88.043812628549915,17.552964585547215],[-88.050607877151776,17.552964585547215],[-88.055653449746899,17.562648830679052]],[[-87.827748175937529,17.545558985958507],[-87.815744594537364,17.54515208500078],[-87.80150305921876,17.541815497687139],[-87.789214648137488,17.531968492352064],[-87.783070442147164,17.512030340927538],[-87.787180141550266,17.496893622242908],[-87.80785071523826,17.457831122208574],[-87.821115689337546,17.44074127838735],[-87.831288215079041,17.423732815117376],[-87.845773892051454,17.414618231146505],[-87.86563066292473,17.429510809076646],[-87.875884569217476,17.41323476807014],[-87.888539192329802,17.4038760442441],[-87.900054491321669,17.391791083192004],[-87.907215950155944,17.367417710159259],[-87.913441535798199,17.3226992865429],[-87.915882941544453,17.31541575733138],[-87.921009894690826,17.305243231589941],[-87.925526495950976,17.292792059406054],[-87.926503058968933,17.278631902840118],[-87.940744595186857,17.292303777897075],[-87.937001106016169,17.295640367009355],[-87.935699022591791,17.298976955222372],[-87.935292120734744,17.302394923986583],[-87.933908657658378,17.305975652954089],[-87.931507941738062,17.32721588690373],[-87.922271288289267,17.362494207941381],[-87.917469855549371,17.41046784101809],[-87.909535285524953,17.426255601414937],[-87.896717903108708,17.437689519855496],[-87.879302537981687,17.449937242010151],[-87.858794726295571,17.47040436387033],[-87.848703580206006,17.471258856511042],[-87.833811002275922,17.46531810144927],[-87.821278449540785,17.463609117067165],[-87.811634895134262,17.472316799180987],[-87.80394446496507,17.491929429299773],[-87.802072719480407,17.512925523394244],[-87.810414192261135,17.525620835433244],[-87.821441209744023,17.516180731055954],[-87.830677864092138,17.511135158460831],[-87.838286912810759,17.512030340927538],[-87.8377986322011,17.518377996947038],[-87.827748175937529,17.545558985958507]],[[-87.823801235838346,17.352932033186846],[-87.827219204602557,17.37811920813499],[-87.838286912810759,17.388495183905661],[-87.825795050800934,17.399155992055455],[-87.814198371257817,17.381293036144768],[-87.797352668191024,17.333238023416072],[-87.801991339828419,17.325873114552621],[-87.803700325109901,17.315985419391666],[-87.803578253833336,17.292303777897075],[-87.810414192261135,17.292303777897075],[-87.810047981129401,17.302639065640392],[-87.810414192261135,17.305975652954089],[-87.816070115843161,17.304266669471247],[-87.819894985565099,17.301459052593259],[-87.82241777276198,17.297512111594699],[-87.824615037753745,17.292303777897075],[-87.823801235838346,17.352932033186846]],[[-88.072865363945368,17.470119533289903],[-88.077056443899721,17.461086329870284],[-88.083973761979507,17.461818752133752],[-88.085804816738857,17.470119533289903],[-88.087147589989229,17.490912177355142],[-88.088490364138977,17.495306708238047],[-88.096506313815269,17.494289455394096],[-88.10513261627716,17.498114325116035],[-88.110910611135751,17.505072333021815],[-88.11424720024803,17.510077216690263],[-88.117298956981244,17.512884833568251],[-88.117176886604,17.518784897904766],[-88.110463019452766,17.523016669483752],[-88.095611132247939,17.517401433929081],[-88.077015754073727,17.503729558872067],[-88.067697720073681,17.490545966223408],[-88.069813606312835,17.480658270163076],[-88.072621223190879,17.476141668902926],[-88.072865363945368,17.470119533289903]],[[-85.851131208738252,16.517217618997961],[-85.832128227235842,16.510497688617477],[-85.816949995845619,16.498308834285297],[-85.822061113729376,16.486163010714449],[-85.844254139816655,16.48377892325874],[-85.849366857594362,16.469205087544822],[-85.86272049045823,16.452220959030058],[-85.882362561682839,16.45104698043383],[-85.895699535505116,16.436496073834803],[-85.947068220821677,16.403189644086865],[-85.950847252998301,16.412307873009979],[-85.940679118646358,16.429902700549235],[-85.926691276681026,16.454782230015951],[-85.911472683717363,16.462042911051526],[-85.895569831682337,16.488744596486015],[-85.8841446609473,16.502834377504541],[-85.851131208738252,16.517217618997961]],[[-86.318918423746197,16.409328517996755],[-86.332671678455142,16.400458075679694],[-86.33885657517078,16.397853907931562],[-86.347767707313778,16.397528387525142],[-86.362205889290294,16.394254366046198],[-86.38025356864722,16.381557601602083],[-86.416959740599509,16.364231547248153],[-86.453071272721047,16.35151137345116],[-86.491021778132506,16.325487820006913],[-86.525265547866695,16.315212383944413],[-86.548152687796289,16.312852734666023],[-86.563799278014244,16.298390453556635],[-86.58064996152649,16.282767000196941],[-86.600504184620377,16.26944911088782],[-86.606542221146526,16.285029102710951],[-86.599332887802518,16.309298272197566],[-86.570446806674738,16.33244040140346],[-86.530681582688828,16.356180794707939],[-86.499999801849356,16.368908870847747],[-86.440390430773732,16.396545290932465],[-86.375444225470574,16.417332689252248],[-86.33212549499558,16.429448093254962],[-86.302047367891703,16.432903318233627],[-86.262351477138907,16.430582028637787],[-86.231076865904583,16.42883532938697],[-86.181750880898392,16.428225142976032],[-86.202208967269996,16.422471073681152],[-86.223870071346653,16.412101045127201],[-86.243112176285877,16.41788107605089],[-86.273185838255813,16.410972052418344],[-86.294341600684277,16.415269273058527],[-86.312123176043713,16.412502346006534],[-86.318918423746197,16.409328517996755]],[[-86.978935229677063,16.077789235984483],[-86.997404699167475,16.083959264208715],[-86.988735173489431,16.095466382967231],[-86.944251204029797,16.116508342486043],[-86.918365038215882,16.122056382496112],[-86.903920051069463,16.124172267835945],[-86.890533006592932,16.127834377354702],[-86.878732877020639,16.127264716193736],[-86.87254798120432,16.120998439826167],[-86.881174282766892,16.104559637717159],[-86.878732877020639,16.093166408203217],[-86.897572395049963,16.093817449915434],[-86.913197395243571,16.090155341295997],[-86.940174934225809,16.07949453314626],[-86.963720510093424,16.066387834331124],[-86.978935229677063,16.077789235984483]]]},"properties":{"OBJECTID":1,"Name":"Región del SAM","Shape_Length":37.685258826105837,"Shape_Area":23.066635149142066}}]}